OBJECT_NAME,OBJECT_ID,EPOCH,MEAN_MOTION,ECCENTRICITY,INCLINATION,RA_OF_ASC_NODE,ARG_OF_PERICENTER,MEAN_ANOMALY,EPHEMERIS_TYPE,CLASSIFICATION_TYPE,NORAD_CAT_ID,ELEMENT_SET_NO,REV_AT_EPOCH,BSTAR,MEAN_MOTION_DOT,MEAN_MOTION_DDOT
PERSEUS-M1,2014-033AF,2026-07-02T19:47:52.782144,14.95683849,.00101438,97.9647,128.2142,242.6905,117.3283,0,U,40039,999,65297,.13296835E-3,.142E-4,0
POLYITAN-1,2014-033AJ,2026-07-01T19:10:51.813120,15.33780662,.00087487,98.0933,210.4473,101.4445,258.7779,0,U,40042,999,65583,.71283433E-3,.2327E-3,0
TIGRISAT,2014-033AK,2026-07-02T09:49:36.429888,14.85217170,.0049718,97.7850,333.0739,26.2474,334.1244,0,U,40043,999,64788,.23566E-3,.201E-4,0
AEROCUBE 6A,2014-033AM,2026-07-02T17:15:25.655616,14.98242398,.00377296,97.7231,350.5043,323.8323,36.0349,0,U,40045,999,64894,.50233116E-3,.5997E-4,0
AEROCUBE 6B,2014-033AN,2026-07-02T16:56:59.691552,14.99703681,.0037724,97.7222,350.3162,314.5022,45.3120,0,U,40046,999,64908,.4446125E-3,.5507E-4,0
CANX-4,2014-034C,2026-07-02T14:53:59.624736,14.81292976,.00120178,98.3101,59.4991,327.0410,33.0051,0,U,40055,999,64681,.14540163E-3,.1078E-4,0
CANX-5,2014-034D,2026-07-02T14:51:28.702080,14.81310317,.0012021,98.3103,59.5418,327.2625,32.7840,0,U,40056,999,63762,.14587E-3,.1082E-4,0
UKUBE-1,2014-037F,2026-07-02T20:02:49.455168,15.13793659,.000315,98.4236,188.7538,108.2577,251.8995,0,U,40074,999,65092,.58855676E-3,.10554E-3,0
BRITE-PL2 (HEWELIUSZ),2014-049B,2026-07-02T20:06:56.655936,14.94651278,.00150691,97.9112,295.9600,60.8674,299.4052,0,U,40119,999,64378,.19366643E-3,.2043E-4,0
AEROCUBE 5C,2015-058B,2026-07-02T11:00:21.199680,14.91517262,.0131523,64.7652,215.0796,57.3193,304.0524,0,U,40965,999,36793,.24998E-3,.2785E-4,0
AEROCUBE 7,2015-058C,2026-07-02T17:53:27.991104,14.95821322,.01212502,64.7602,196.0802,55.5551,305.6951,0,U,40966,999,36828,.36311564E-3,.4536E-4,0
FOX-1A (AO-85),2015-058D,2026-07-02T20:18:55.888416,14.91035738,.01314684,64.7736,230.3176,50.5060,310.7590,0,U,40967,999,11590,.25057654E-3,.2755E-4,0
SINOD-D 1,2015-058E,2026-07-02T18:55:17.683968,14.95999124,.01201016,64.7730,210.0523,46.9321,314.1771,0,U,40968,999,11899,.33917331E-3,.4233E-4,0
SNAP-3 ALICE,2015-058G,2026-07-02T14:29:44.946816,15.64101419,.0023704,64.7494,50.4913,359.6109,0.5016,0,U,40970,999,11929,.13768E-2,.135133E-2,0
LMRST-SAT,2015-058H,2026-07-02T12:53:54.953376,14.90650106,.0133008,64.7742,227.6452,52.6570,308.6572,0,U,40971,999,11584,.22632E-3,.2453E-4,0
SNAP-3 EDDIE,2015-058J,2026-07-02T20:06:00.821664,15.65374054,.00244306,64.7408,40.2867,2.3664,357.7595,0,U,40972,999,12147,.15503515E-2,.160758E-2,0
PROPCUBE 3,2015-058K,2026-07-02T11:14:25.160064,14.94337998,.0124916,64.7664,204.7888,53.9075,307.3528,0,U,40973,999,11708,.31526E-3,.3788E-4,0
BISONSAT,2015-058L,2026-07-02T20:40:21.202464,15.16623395,.0080794,64.7586,122.9523,41.0182,319.6980,0,U,40974,999,11799,.89186154E-3,.18891E-3,0
SNAP-3 JIMI,2015-058M,2026-07-02T08:47:21.713856,15.02457254,.0107006,64.7634,171.7410,49.3040,311.7313,0,U,40975,999,11650,.54509E-3,.8037E-4,0
PROPCUBE 1 (FLORA),2015-058N,2026-07-02T13:45:59.711328,14.89283455,.0131626,64.7739,247.5480,54.9311,306.4062,0,U,40976,999,11855,.22099E-3,.2293E-4,0
SINOD-D 3,2015-058P,2026-07-02T20:05:28.424256,14.94103521,.01201829,64.7706,226.9465,51.9319,309.2563,0,U,40977,999,11709,.3189967E-3,.3766E-4,0
HORYU-4,2016-012D,2026-07-01T19:00:28.190016,16.27112331,.00086595,30.9791,330.1929,346.1826,13.8606,0,U,41340,999,57316,.11150615E-2,.4204222E-1,-.3865025E-5
RAVAN,2016-067B,2026-07-02T16:14:30.567552,15.56248223,.00018322,97.9862,75.0539,318.4680,41.6434,0,U,41849,999,53010,.76682644E-3,.53994E-3,0
CELTEE 1,2016-067C,2026-07-02T21:03:25.733952,15.19837610,.00018149,98.0648,51.5142,124.7703,235.3701,0,U,41850,999,52826,.30956611E-3,.656E-4,0
OPTICUBE 04,2016-067D,2026-07-02T20:29:30.383232,15.09730218,.00169454,98.0683,36.9541,67.0692,293.2322,0,U,41851,999,52753,.18544854E-3,.2929E-4,0
AEROCUBE 8D,2016-067E,2026-07-02T13:55:31.527264,15.24614243,.0005007,98.0657,54.9225,87.2317,272.9492,0,U,41852,999,52841,.35026E-3,.8564E-4,0
AEROCUBE 8C,2016-067F,2026-07-02T20:45:49.915584,15.24872103,.00054933,98.0529,52.4369,24.4728,335.6768,0,U,41853,999,52845,.39166781E-3,.9663E-4,0
CORVUS BC2,2017-042X,2026-07-02T09:45:52.419744,15.06389012,.0014119,97.4073,344.1660,63.2233,297.0438,0,U,42846,999,48935,.29262E-3,.4259E-4,0
CORVUS BC1,2017-042Y,2026-07-02T17:33:54.535680,15.06558945,.00125774,97.4113,345.3026,40.7159,319.5007,0,U,42847,999,48943,.31432815E-3,.4599E-4,0
MAKERSAT 0,2017-073D,2026-07-01T17:49:11.898912,15.32570583,.01048938,97.4602,65.3778,220.3477,138.9950,0,U,43016,999,46869,.56438682E-3,.21095E-3,0
